{
  "type": "FeatureCollection",
  "features": [
    {
      "type": "Feature",
      "properties": {
        "norad_id": 36036,
        "name": "SMOS",
        "group": "resource",
        "lat": -48.10643547785289,
        "lon": -19.961672200495524,
        "alt_km": 766.8294949884485,
        "timestamp": "2025-12-10T11:33:53.048016+00:00",
        "meta_object_name": "SMOS",
        "meta_object_id": "2009-059A",
        "meta_epoch": "2025-12-10T02:09:57.515328",
        "meta_mean_motion": 14.39737496,
        "meta_eccentricity": 0.000111,
        "meta_inclination": 98.4382,
        "meta_ra_of_asc_node": 169.1779,
        "meta_arg_of_pericenter": 84.668,
        "meta_mean_anomaly": 275.4635,
        "meta_ephemeris_type": 0,
        "meta_classification_type": "U",
        "meta_norad_cat_id": 36036,
        "meta_element_set_no": 999,
        "meta_rev_at_epoch": 84624,
        "meta_bstar": 0.00020312,
        "meta_mean_motion_dot": 5.93e-06,
        "meta_mean_motion_ddot": 0,
        "tle_line1": "1 36036U 09059A   25344.09024902  .00000593  00000+0  20312-3 0  9992",
        "tle_line2": "2 36036  98.4382 169.1779 0001110  84.6680 275.4635 14.39737496846248"
      },
      "geometry": {
        "type": "Point",
        "coordinates": [
          -19.961672200495524,
          -48.10643547785289
        ]
      }
    },
    {
      "type": "Feature",
      "properties": {
        "norad_id": 36110,
        "name": "YAOGAN-7",
        "group": "resource",
        "lat": 72.65649324054755,
        "lon": 73.12219983920036,
        "alt_km": 645.9376800108375,
        "timestamp": "2025-12-10T11:33:53.048028+00:00",
        "meta_object_name": "YAOGAN-7",
        "meta_object_id": "2009-069A",
        "meta_epoch": "2025-12-10T02:57:46.662336",
        "meta_mean_motion": 14.77726133,
        "meta_eccentricity": 0.002344,
        "meta_inclination": 98.0303,
        "meta_ra_of_asc_node": 225.8898,
        "meta_arg_of_pericenter": 290.1998,
        "meta_mean_anomaly": 69.6691,
        "meta_ephemeris_type": 0,
        "meta_classification_type": "U",
        "meta_norad_cat_id": 36110,
        "meta_element_set_no": 999,
        "meta_rev_at_epoch": 86170,
        "meta_bstar": 0.00015275,
        "meta_mean_motion_dot": 1.046e-05,
        "meta_mean_motion_ddot": 0,
        "tle_line1": "1 36110U 09069A   25344.12345674  .00001046  00000+0  15275-3 0  9998",
        "tle_line2": "2 36110  98.0303 225.8898 0023440 290.1998  69.6691 14.77726133861709"
      },
      "geometry": {
        "type": "Point",
        "coordinates": [
          73.12219983920036,
          72.65649324054755
        ]
      }
    },
    {
      "type": "Feature",
      "properties": {
        "norad_id": 36605,
        "name": "TANDEM-X",
        "group": "resource",
        "lat": 14.711014910752771,
        "lon": -12.071684996781025,
        "alt_km": 508.85625693844213,
        "timestamp": "2025-12-10T11:33:53.048039+00:00",
        "meta_object_name": "TANDEM-X",
        "meta_object_id": "2010-030A",
        "meta_epoch": "2025-12-09T11:47:13.197408",
        "meta_mean_motion": 15.19145601,
        "meta_eccentricity": 0.0002009,
        "meta_inclination": 97.445,
        "meta_ra_of_asc_node": 348.9195,
        "meta_arg_of_pericenter": 85.8365,
        "meta_mean_anomaly": 274.3099,
        "meta_ephemeris_type": 0,
        "meta_classification_type": "U",
        "meta_norad_cat_id": 36605,
        "meta_element_set_no": 999,
        "meta_rev_at_epoch": 85784,
        "meta_bstar": 0.00012722,
        "meta_mean_motion_dot": 2.605e-05,
        "meta_mean_motion_ddot": 0,
        "tle_line1": "1 36605U 10030A   25343.49112497  .00002605  00000+0  12722-3 0  9997",
        "tle_line2": "2 36605  97.4450 348.9195 0002009  85.8365 274.3099 15.19145601857845"
      },
      "geometry": {
        "type": "Point",
        "coordinates": [
          -12.071684996781025,
          14.711014910752771
        ]
      }
    },
    {
      "type": "Feature",
      "properties": {
        "norad_id": 36795,
        "name": "CARTOSAT-2B",
        "group": "resource",
        "lat": 24.09859026989353,
        "lon": 30.077139657279904,
        "alt_km": 627.9955026439657,
        "timestamp": "2025-12-10T11:33:53.048049+00:00",
        "meta_object_name": "CARTOSAT-2B",
        "meta_object_id": "2010-035A",
        "meta_epoch": "2025-12-10T04:57:33.554304",
        "meta_mean_motion": 14.78782447,
        "meta_eccentricity": 0.0012929,
        "meta_inclination": 97.7851,
        "meta_ra_of_asc_node": 33.3192,
        "meta_arg_of_pericenter": 84.7725,
        "meta_mean_anomaly": 275.4962,
        "meta_ephemeris_type": 0,
        "meta_classification_type": "U",
        "meta_norad_cat_id": 36795,
        "meta_element_set_no": 999,
        "meta_rev_at_epoch": 83192,
        "meta_bstar": 9.8869e-05,
        "meta_mean_motion_dot": 6.77e-06,
        "meta_mean_motion_ddot": 0,
        "tle_line1": "1 36795U 10035A   25344.20663836  .00000677  00000+0  98869-4 0  9994",
        "tle_line2": "2 36795  97.7851  33.3192 0012929  84.7725 275.4962 14.78782447831926"
      },
      "geometry": {
        "type": "Point",
        "coordinates": [
          30.077139657279904,
          24.09859026989353
        ]
      }
    },
    {
      "type": "Feature",
      "properties": {
        "norad_id": 36834,
        "name": "YAOGAN-10",
        "group": "resource",
        "lat": 56.30907715649842,
        "lon": -7.724383561088503,
        "alt_km": 608.6193446920306,
        "timestamp": "2025-12-10T11:33:53.048059+00:00",
        "meta_object_name": "YAOGAN-10",
        "meta_object_id": "2010-038A",
        "meta_epoch": "2025-12-10T05:25:23.467584",
        "meta_mean_motion": 14.84588244,
        "meta_eccentricity": 0.0001412,
        "meta_inclination": 97.9142,
        "meta_ra_of_asc_node": 4.0652,
        "meta_arg_of_pericenter": 84.7087,
        "meta_mean_anomaly": 45.6891,
        "meta_ephemeris_type": 0,
        "meta_classification_type": "U",
        "meta_norad_cat_id": 36834,
        "meta_element_set_no": 999,
        "meta_rev_at_epoch": 82916,
        "meta_bstar": 0.0001831,
        "meta_mean_motion_dot": 1.492e-05,
        "meta_mean_motion_ddot": 0,
        "tle_line1": "1 36834U 10038A   25344.22596606  .00001492  00000+0  18310-3 0  9991",
        "tle_line2": "2 36834  97.9142   4.0652 0001412  84.7087  45.6891 14.84588244829164"
      },
      "geometry": {
        "type": "Point",
        "coordinates": [
          -7.724383561088503,
          56.30907715649842
        ]
      }
    },
    {
      "type": "Feature",
      "properties": {
        "norad_id": 37216,
        "name": "COSMO-SKYMED 4",
        "group": "resource",
        "lat": 0.030053357941243912,
        "lon": 165.83467621130458,
        "alt_km": 625.3110324616318,
        "timestamp": "2025-12-10T11:33:53.048069+00:00",
        "meta_object_name": "COSMO-SKYMED 4",
        "meta_object_id": "2010-060A",
        "meta_epoch": "2025-12-10T03:27:48.199968",
        "meta_mean_motion": 14.82164535,
        "meta_eccentricity": 0.0001421,
        "meta_inclination": 97.8805,
        "meta_ra_of_asc_node": 165.5065,
        "meta_arg_of_pericenter": 79.2159,
        "meta_mean_anomaly": 280.9214,
        "meta_ephemeris_type": 0,
        "meta_classification_type": "U",
        "meta_norad_cat_id": 37216,
        "meta_element_set_no": 999,
        "meta_rev_at_epoch": 81656,
        "meta_bstar": 0.00014813,
        "meta_mean_motion_dot": 1.128e-05,
        "meta_mean_motion_ddot": 0,
        "tle_line1": "1 37216U 10060A   25344.14430787  .00001128  00000+0  14813-3 0  9999",
        "tle_line2": "2 37216  97.8805 165.5065 0001421  79.2159 280.9214 14.82164535816568"
      },
      "geometry": {
        "type": "Point",
        "coordinates": [
          165.83467621130458,
          0.030053357941243912
        ]
      }
    },
    {
      "type": "Feature",
      "properties": {
        "norad_id": 37387,
        "name": "RESOURCESAT-2",
        "group": "resource",
        "lat": 78.98329726523124,
        "lon": -79.34008129796064,
        "alt_km": 809.452330505731,
        "timestamp": "2025-12-10T11:33:53.048079+00:00",
        "meta_object_name": "RESOURCESAT-2",
        "meta_object_id": "2011-015A",
        "meta_epoch": "2025-12-10T04:21:19.922112",
        "meta_mean_motion": 14.21595569,
        "meta_eccentricity": 0.0006549,
        "meta_inclination": 98.788,
        "meta_ra_of_asc_node": 47.7447,
        "meta_arg_of_pericenter": 49.1873,
        "meta_mean_anomaly": 310.9871,
        "meta_ephemeris_type": 0,
        "meta_classification_type": "U",
        "meta_norad_cat_id": 37387,
        "meta_element_set_no": 999,
        "meta_rev_at_epoch": 75932,
        "meta_bstar": 0.00012246,
        "meta_mean_motion_dot": 2.24e-06,
        "meta_mean_motion_ddot": 0,
        "tle_line1": "1 37387U 11015A   25344.18148058  .00000224  00000+0  12246-3 0  9994",
        "tle_line2": "2 37387  98.7880  47.7447 0006549  49.1873 310.9871 14.21595569759321"
      },
      "geometry": {
        "type": "Point",
        "coordinates": [
          -79.34008129796064,
          78.98329726523124
        ]
      }
    }
  ]
}